OBJECT_NAME,OBJECT_ID,EPOCH,MEAN_MOTION,ECCENTRICITY,INCLINATION,RA_OF_ASC_NODE,ARG_OF_PERICENTER,MEAN_ANOMALY,EPHEMERIS_TYPE,CLASSIFICATION_TYPE,NORAD_CAT_ID,ELEMENT_SET_NO,REV_AT_EPOCH,BSTAR,MEAN_MOTION_DOT,MEAN_MOTION_DDOT
COSMO-SKYMED 1,2007-023A,2026-06-09T12:22:17.523840,14.97064559,.0001061,97.8855,352.3079,82.8013,277.3328,0,U,31598,999,2864,.17293E-3,.1933E-4,0
COSMOS 2428,2007-029A,2026-06-09T06:50:53.263680,14.12929724,.0007215,70.9374,11.0694,150.1446,210.0088,0,U,31792,999,97703,-.66117E-4,-.171E-5,0
SL-16 R/B,2007-029B,2026-06-09T06:49:58.954368,14.14850685,.0002222,70.9760,339.8411,258.8495,278.9960,0,U,31793,999,97832,.1881E-3,.315E-5,0
KORONAS-FOTON,2009-003A,2026-06-09T12:05:37.500000,15.45563938,.0010872,82.4293,180.2734,173.1037,187.0363,0,U,33504,999,95991,.20861E-3,.10084E-3,0
CZ-2C R/B,2011-030B,2026-06-09T11:40:42.074112,14.81452506,.0053569,97.8652,116.0121,52.5644,63.7383,0,U,37731,999,80368,.15845E-3,.1217E-4,0
H-2A R/B,2012-025E,2026-06-09T11:07:32.200032,14.95673290,.0044203,98.4814,134.9723,14.2241,346.0211,0,U,38341,999,76193,.25375E-3,.2807E-4,0
SHIJIAN-16 (SJ-16),2013-057A,2026-06-09T12:44:58.280640,14.92592598,.0016921,74.9734,11.1843,248.5146,111.4238,0,U,39358,999,68520,.50448E-4,.491E-5,0
SL-4 R/B,2014-021B,2026-06-09T13:05:31.801344,15.41791897,.0091607,51.6055,248.2051,78.1861,282.9382,0,U,39679,999,67043,.20447E-3,.9776E-4,0
ALOS-2,2014-029A,2026-06-08T13:11:42.167040,14.79472067,.00016718,97.9210,256.8376,90.6305,269.5098,0,U,39766,999,65030,.20114351E-3,.1451E-4,0
YAOGAN-29,2015-069A,2026-06-09T11:40:28.067808,14.83077952,.0002886,98.0034,189.1072,66.1758,293.9757,0,U,41038,999,56948,.27678E-4,.171E-5,0
ASTRO-H (HITOMI),2016-012A,2026-06-09T04:05:41.270784,15.10475751,.00096288,30.9980,125.9593,173.7339,186.3421,0,U,41337,999,56607,.11712381E-3,.2073E-4,0
HXMT (HUIYAN),2017-034A,2026-06-09T12:05:38.279328,15.18424330,.0030188,43.0133,225.8227,96.4694,263.9593,0,U,42758,999,49649,.20027E-3,.4001E-4,0
SAOCOM 1A,2018-076A,2026-06-09T12:10:32.382336,14.82169285,.0001506,97.8890,347.3677,78.8144,281.3238,0,U,43641,999,41496,.34598E-4,.223E-5,0
H-2A R/B,2018-084L,2026-06-09T05:26:43.042848,15.44846396,.0024185,98.8593,37.3792,66.9346,293.4445,0,U,43682,999,41989,.36412E-3,.17164E-3,0
SAOCOM 1B,2020-059A,2026-06-09T12:55:34.748832,14.82164968,.0001465,97.8892,346.4930,81.5569,278.5810,0,U,46265,999,31235,.71726E-4,.519E-5,0
CSS (TIANHE),2021-035A,2026-06-09T11:45:26.750880,15.60486295,.0008444,41.4694,8.8345,15.7709,344.3391,0,U,48274,999,29196,.2642E-3,.22144E-3,0
COSMOS 2550,2021-056A,2026-06-08T19:23:25.914048,15.33755463,.0008705,67.1416,125.2525,266.0377,93.9783,0,U,48865,999,27743,.19790476E-3,.631E-4,0
CZ-2C R/B,2022-058K,2026-06-09T10:27:08.923680,15.61324142,.0032977,50.1846,203.8374,235.4973,124.2885,0,U,52794,999,22443,.32951E-3,.28951E-3,0
CZ-2C R/B,2022-132E,2026-06-09T12:13:20.319744,15.70623780,.0016864,97.2906,167.1957,107.6570,252.6536,0,U,54039,999,20474,.45344E-3,.56438E-3,0
GSLV R/B,2022-138AN,2026-06-09T10:21:43.432416,14.97222779,.0021709,87.3797,135.5889,170.5161,189.6485,0,U,54149,999,19765,.15889E-3,.1875E-4,0
XRISM,2023-137A,2026-06-09T09:40:27.429600,15.12397601,.000794,31.0028,50.0204,246.6719,113.3085,0,U,57800,999,15168,.24466E-3,.4454E-4,0
ACS3,2024-077B,2026-06-09T09:08:48.139008,13.93922477,.0054168,97.1672,80.9129,68.3507,292.3417,0,U,59588,999,10695,.14165E-1,.18947E-3,0
CZ-8A R/B,2025-231K,2026-06-09T10:27:32.275872,14.30152760,.0116461,50.0044,72.2936,196.7286,162.9773,0,U,66004,999,3383,.50034E-4,-.24E-6,0
SZ-21 MODULE,2025-246C,2026-06-08T20:26:08.101824,15.75674541,.00067,41.4714,359.2138,299.9993,60.0186,0,U,66515,999,3242,.25860117E-3,.40731E-3,0
